METEOSAT-11 (MSG-4)     
1 40732U 15034A   18265.66329018 -.00000010  00000-0  00000-0 0  9998
2 40732   1.1985 242.1225 0001233 252.9016 105.9345  1.00281450 11723
STAR ONE C4             
1 40733U 15034B   18265.19162353 -.00000279  00000-0  00000-0 0  9991
2 40733   0.0399  32.7927 0000895 136.5173 190.7057  1.00272541 11719
INTELSAT 34 (IS-34)     
1 40874U 15039A   18265.15153644 -.00000299  00000-0  00000-0 0  9993
2 40874   0.0229 184.9169 0000583 296.9840 238.1047  1.00270868 11357
EUTELSAT 8 WEST B       
1 40875U 15039B   18265.01992245 -.00000080  00000-0  00000-0 0  9995
2 40875   0.0732  30.0138 0002998 145.8282 184.1739  1.00272651 11369
GSAT-6                  
1 40880U 15041A   18265.76487948 -.00000178  00000-0  00000-0 0  9993
2 40880   0.0466  98.7994 0008473 150.7300 110.3952  1.00271354 11323
INMARSAT 5-F3           
1 40882U 15042A   18265.49749866  .00000036  00000-0  00000-0 0  9998
2 40882   0.0239 179.7146 0000327 345.4848 194.8016  1.00270689 11230
TJS-1                   
1 40892U 15046A   18265.92565457 -.00000168  00000-0  10000-3 0  9994
2 40892   0.0200 159.0128 0001856 203.1651 127.8461  1.00272600 11235
EXPRESS-AM8             
1 40895U 15048A   18265.38938122 -.00000125  00000-0  00000-0 0  9991
2 40895   0.0361 319.4751 0000608 330.3176 197.5783  1.00271720 11052
SKY MUSTER (NBN1A)      
1 40940U 15054A   18265.90085744 -.00000291  00000-0  00000-0 0  9994
2 40940   0.0168 238.9933 0001909 293.6767 293.5916  1.00272854 10971
ARSAT 2                 
1 40941U 15054B   18265.22217348 -.00000239  00000-0  00000-0 0  9999
2 40941   0.0161 208.3485 0001776 318.5426 193.1274  1.00273407 10998
MORELOS 3               
1 40946U 15056A   18265.22321628 -.00000059  00000-0  00000-0 0  9993
2 40946   5.7941 328.3176 0002867 183.8756 176.0943  1.00272337 10963
APSTAR 9                
1 40982U 15059A   18265.60156948 -.00000280  00000-0  00000-0 0  9995
2 40982   0.0200 188.1136 0000833  33.4427 138.4373  1.00268998 10825
TURKSAT 4B              
1 40984U 15060A   18265.85649983  .00000102  00000-0  00000-0 0  9994
2 40984   0.0200 188.8283 0002450 341.9860 189.1901  1.00268080 10790
CHINASAT 2C (ZX 2C)     
1 41021U 15063A   18265.84025166 -.00000337  00000-0  00000-0 0  9991
2 41021   0.0333 324.3449 0001492 336.1360 107.0884  1.00270959 10693
GSAT-15                 
1 41028U 15065A   18265.73585631 -.00000272  00000-0  00000-0 0  9994
2 41028   0.0191 173.9803 0001446 342.8912 203.1350  1.00270564 10520
BADR-7 (ARABSAT-6B)     
1 41029U 15065B   18264.92562055  .00000130  00000-0  00000-0 0  9992
2 41029   0.0595 258.3500 0005088 321.3214 140.3046  1.00270324 10443
LAOSAT 1                
1 41034U 15067A   18265.63905243 -.00000356  00000-0  00000-0 0  9990
2 41034   0.0185 114.6339 0002120  36.9252 208.4673  1.00273423 10549
TELSTAR 12V             
1 41036U 15068A   18265.03928454 -.00000133  00000-0  00000-0 0  9999
2 41036   0.0186 155.0358 0001929  20.0757 184.9039  1.00272684 10308
CHINASAT 1C (ZX 1C)     
1 41103U 15073A   18265.91091170 -.00000165  00000-0  00000-0 0  9998
2 41103   0.1621 102.7374 0002566 122.5227 186.0505  1.00271725 10354
ELEKTRO-L 2             
1 41105U 15074A   18265.90986487 -.00000111  00000-0  00000-0 0  9995
2 41105   0.0277 135.7169 0001549  24.9300 244.7003  1.00272987 10207
COSMOS 2513             
1 41121U 15075A   18265.91073723 -.00000152  00000-0  00000-0 0  9990
2 41121   0.0596 116.4711 0001491  86.0108 207.3681  1.00272083 10281
EXPRESS-AMU1            
1 41191U 15082A   18265.87063485  .00000142  00000-0  00000-0 0  9992
2 41191   0.0088 223.9351 0002232 307.1231 180.1605  1.00269879 10188
GAOFEN 4                
1 41194U 15083A   18265.87757683 -.00000348  00000-0  00000-0 0  9995
2 41194   0.0279 146.8364 0005047  79.6131 196.8891  1.00270367 10171
BELINTERSAT-1           
1 41238U 16001A   18265.85243543  .00000094  00000-0  00000-0 0  9995
2 41238   0.0279 268.8563 0002178 233.9246 217.2494  1.00270499  9946
IRNSS-1E                
1 41241U 16003A   18264.98435322 -.00000281  00000-0  00000-0 0  9991
2 41241  28.7680 106.7917 0021374 179.5883 180.5487  1.00260564  9763
INTELSAT 29E (IS-29E)   
1 41308U 16004A   18265.13626150 -.00000296  00000-0  00000-0 0  9991
2 41308   0.0119 191.4673 0001829 340.7821 187.7671  1.00272474  9851
EUTELSAT 9B             
1 41310U 16005A   18264.97274931  .00000047  00000-0  00000-0 0  9995
2 41310   0.0513  78.2983 0003915 175.6396 106.0325  1.00273163  9797
SES-9                   
1 41380U 16013A   18265.69507334 -.00000359  00000-0  00000-0 0  9994
2 41380   0.0396 264.5223 0001748 228.7050 226.8020  1.00272109  9151
EUTELSAT 65 WEST A      
1 41382U 16014A   18265.17838731 -.00000290  00000-0  00000-0 0  9992
2 41382   0.0234  13.9754 0001978 153.6447 192.3847  1.00271467  9239
IRNSS-1F                
1 41384U 16015A   18265.60303863  .00000140  00000-0  00000-0 0  9999
2 41384   3.2267 251.4261 0019356 188.7845 170.7338  1.00272993  9379
IRNSS-1G                
1 41469U 16027A   18265.33934976 -.00000354  00000-0  00000-0 0  9999
2 41469   3.2870 253.2885 0004796 210.2034 149.3371  1.00276240  8870
JCSAT 2B                
1 41471U 16028A   18265.56839384 -.00000179  00000-0  00000-0 0  9990
2 41471   0.0243 177.2744 0002100 357.1054 185.6225  1.00270218  8781
THAICOM 8               
1 41552U 16031A   18265.77770050 -.00000135  00000-0  00000-0 0  9993
2 41552   0.0745  49.6502 0002152  44.6137 265.7757  1.00271996  8390
INTELSAT 31 (IS-31)     
1 41581U 16035A   18265.26103525 -.00000165  00000-0  00000-0 0  9993
2 41581   0.0241 229.7772 0002070 343.3388 146.8850  1.00271878  8313
BD-2-G7                 
1 41586U 16037A   18265.66493874 -.00000148  00000-0  00000-0 0  9994
2 41586   0.7348   2.8866 0009142 322.5480  34.5219  0.98465489  8474
ABS-2A (MONGOLSAT-1)    
1 41588U 16038A   18265.78812392 -.00000098  00000-0  00000-0 0  9994
2 41588   0.0191 154.0664 0002254 309.2580 256.7158  1.00273186  8397
EUTELSAT 117 WEST B     
1 41589U 16038B   18265.32177185 -.00000025  00000-0  00000-0 0  9999
2 41589   0.0017  38.5451 0000436 255.7727  65.6776  1.00270114  8383
BRISAT                  
1 41591U 16039A   18265.57811344 -.00000210  00000-0  00000-0 0  9998
2 41591   0.0104 231.0177 0002391 302.5233 186.4768  1.00272590  8296
ECHOSTAR 18             
1 41592U 16039B   18265.16769859 -.00000296  00000-0  00000-0 0  9991
2 41592   0.0249 165.5772 0001845  12.5549 181.8685  1.00269688  8314
TIANTONG-1 1            
1 41725U 16048A   18265.17757832 -.00000332  00000-0  00000-0 0  9999
2 41725   3.9194 326.8343 0001851 312.8643 246.5789  1.00269764  7944
JCSAT-16                
1 41729U 16050A   18265.57959470 -.00000214  00000-0  00000-0 0  9991
2 41729   0.0294 106.2276 0002026  75.9410 177.8452  1.00273128  7746
INTELSAT 36 (IS-36)     
1 41747U 16053A   18265.80529537 -.00000037  00000-0  00000-0 0  9990
2 41747   0.0127 187.5517 0002787 182.5882 349.8657  1.00266852  7657
INTELSAT 33E (IS-33E)   
1 41748U 16053B   18265.82878069  .00000035  00000-0  00000-0 0  9997
2 41748   0.0368  25.7810 0002773 160.9914 173.2393  1.00273742  7938
INSAT-3DR               
1 41752U 16054A   18265.78993741 -.00000090  00000-0  00000-0 0  9995
2 41752   0.0543 104.0737 0006904 162.1990  93.6639  1.00273293  7484
GSAT-18                 
1 41793U 16060A   18265.79029183 -.00000091  00000-0  00000-0 0  9999
2 41793   0.0273 123.6802 0006731 341.4142 254.9949  1.00272389  7210
SKY MUSTER 2            
1 41794U 16060B   18265.59388028 -.00000258  00000-0  00000-0 0  9999
2 41794   0.0176 238.8648 0001691 293.9971 187.1551  1.00272338  7211
HIMAWARI-9              
1 41836U 16064A   18265.60515243 -.00000289  00000-0  00000-0 0  9997
2 41836   0.0221 185.0608 0000817 341.0400 193.9014  1.00271890  6871
SHIJIAN-17 (SJ-17)      
1 41838U 16065A   18265.98395252 -.00000277  00000-0  00000-0 0  9994
2 41838   0.1582 103.5882 0001907  38.0348 308.6037  1.00275296  6917
GOES 16                 
1 41866U 16071A   18265.20609079 -.00000262  00000-0  00000-0 0  9996
2 41866   0.0009 218.1291 0000460 307.0140 194.8582  1.00269120  6795
TIANLIAN 1-04           
1 41869U 16072A   18265.91003934 -.00000123  00000-0  00000-0 0  9992
2 41869   1.6753 286.1116 0012854 170.4222 309.7881  1.00274248  6993
FENGYUN 4A              
1 41882U 16077A   18265.91562244 -.00000344  00000-0  00000-0 0  9991
2 41882   0.2498 283.8210 0005376 210.3323 301.9631  1.00273584  6668
ECHOSTAR 19             
1 41893U 16079A   18265.26671917 -.00000152  00000-0  00000-0 0  9998
2 41893   0.0141 126.2464 0001776  52.3566 181.4115  1.00272505  6397
JCSAT-15                
1 41903U 16082A   18265.69008271 -.00000365  00000-0  00000-0 0  9994
2 41903   0.0286 254.6200 0001260 355.8621 109.5193  1.00271675  6433
STAR ONE D1             
1 41904U 16082B   18265.23054155 -.00000224  00000-0  00000-0 0  9991
2 41904   0.0318 138.8671 0002270  64.0426 157.0802  1.00269655  6462
TJS-2                   
1 41911U 17001A   18265.91614586 -.00000355  00000-0  00000-0 0  9991
2 41911   0.3209  97.0683 0001881 208.0857 133.8893  1.00270024  6415
HISPASAT 36W-1          
1 41942U 17006A   18265.09744889 -.00000259  00000-0  00000-0 0  9992
2 41942   0.0087 145.3957 0000973  40.5463 174.0569  1.00268874  6208
TELKOM 3S               
1 41944U 17007A   18265.66811577 -.00000376  00000-0  00000-0 0  9997
2 41944   0.0112 198.7029 0002291 346.6397 174.6699  1.00273442  5815
INTELSAT 32E (IS-32E)   
1 41945U 17007B   18265.11737985 -.00000283  00000-0  00000-0 0  9995
2 41945   0.0249 172.1754 0000486 319.7416 228.0872  1.00270523  5921
ECHOSTAR 23             
1 42070U 17014A   18265.12215138 -.00000287  00000-0  00000-0 0  9999
2 42070   0.0230 174.4285 0002065   8.1164 177.4541  1.00269713  5614
